ONEWEB-0210             
1 48787U 21045W   24268.56076755  .00000225  00000+0  56328-3 0  9994
2 48787  87.9105  24.6751 0002001 127.3046 232.8267 13.15547564161400
ONEWEB-0214             
1 48788U 21045X   24268.57026771  .00000174  00000+0  42730-3 0  9994
2 48788  87.9107  24.6624 0001642 120.5125 239.6168 13.15548692161379
ONEWEB-0221             
1 48789U 21045Y   24268.57661892  .00000076  00000+0  16906-3 0  9991
2 48789  87.9107  24.6816 0001999 104.6686 255.4666 13.15550203161463
ONEWEB-0213             
1 48790U 21045Z   24268.56551962  .00000106  00000+0  24775-3 0  9995
2 48790  87.9109  24.6959 0002089 109.6682 250.4674 13.15547572161523
ONEWEB-0212             
1 48791U 21045AA  24268.61860528  .00000276  00000+0  69994-3 0  9993
2 48791  87.9108  24.6701 0001914  97.9916 262.1431 13.15549058161525
ONEWEB-0227             
1 48792U 21045AB  24268.61779775  .00000552  00000+0  14316-2 0  9991
2 48792  87.9106  24.6850 0001920 102.3326 257.8020 13.15554080162608
ONEWEB-0226             
1 48793U 21045AC  24268.61146494  .00000248  00000+0  62410-3 0  9999
2 48793  87.9107  24.6920 0001944 116.5138 243.6191 13.15546969161442
ONEWEB-0224             
1 48794U 21045AD  24268.57502878  .00000069  00000+0  14820-3 0  9990
2 48794  87.9112  24.7243 0002891  96.5834 263.5626 13.15548915161368
